ALOS-4 (DAICHI-4)       
1 60182U 24123A   24247.71892967  .00007698  00000+0  10365-2 0  9993
2 60182  97.9220 343.2510 0001531  99.6110 260.5275 14.79472539  9559
